HAWK-5A                 
1 52757U 22057AB  26198.92890431  .00011283  00000+0  18666-3 0  9998
2 52757  97.6632 359.7918 0003081 325.4381  34.6670 15.52384529231119
HAWK-6B                 
1 55324U 23011A   26198.93568646  .00002570  00000+0  11461-3 0  9998
2 55324  40.4976 172.6890 0004472 254.5549 105.4766 15.23169163192531
HAWK-6C                 
1 55326U 23011C   26198.93505399  .00002298  00000+0  10335-3 0  9992
2 55326  40.4966 169.5282 0004957 248.7068 111.3212 15.23168817192549
HAWK-6A                 
1 55327U 23011D   26198.34499843  .00002348  00000+0  10543-3 0  9991
2 55327  40.4975 174.5982 0004531 242.4920 117.5429 15.23165655192454
HAWK-7A                 
1 56191U 23054P   26198.11313913  .00002943  00000+0  11158-3 0  9990
2 56191  97.2658  84.6895 0001232 321.9127  38.2026 15.27644350181596
HAWK-7B                 
1 56193U 23054R   26198.70259496  .00002815  00000+0  10686-3 0  9995
2 56193  97.2682  83.5386 0001050  10.8602 349.2660 15.27645853181686
HAWK-7C                 
1 56200U 23054Y   26198.63696519  .00002819  00000+0  10699-3 0  9995
2 56200  97.2658  84.2340 0000687 342.1037  18.0178 15.27648156181677
